
    {
        "ARG_OF_PERICENTER": 284.2231,
        "BSTAR": 0.0010486,
        "CLASSIFICATION_TYPE": "U",
        "ECCENTRICITY": 0.0004288,
        "ELEMENT_SET_NO": 999,
        "EPHEMERIS_TYPE": 0,
        "EPOCH": "2026-03-29T04:16:35.311008",
        "INCLINATION": 98.0014,
        "MEAN_ANOMALY": 75.8541,
        "MEAN_MOTION": 15.47787502,
        "MEAN_MOTION_DDOT": 0,
        "MEAN_MOTION_DOT": 0.00054618,
        "NORAD_CAT_ID": 41849,
        "OBJECT_ID": "2016-067B",
        "OBJECT_NAME": "RAVAN",
        "RA_OF_ASC_NODE": 328.9294,
        "REV_AT_EPOCH": 51529
    },
    {
        "ARG_OF_PERICENTER": 115.1928,
        "BSTAR": 0.00040447,
        "CLASSIFICATION_TYPE": "U",
        "ECCENTRICITY": 0.0002068,
        "ELEMENT_SET_NO": 999,
        "EPHEMERIS_TYPE": 0,
        "EPOCH": "2026-03-30T00:59:16.903968",
        "INCLINATION": 98.0789,
        "MEAN_ANOMALY": 244.9519,
        "MEAN_MOTION": 15.18860666,
        "MEAN_MOTION_DDOT": 0,
        "MEAN_MOTION_DOT": 8.357e-05,
        "NORAD_CAT_ID": 41850,
        "OBJECT_ID": "2016-067C",
        "OBJECT_NAME": "CELTEE 1",
        "RA_OF_ASC_NODE": 310.2071,
        "REV_AT_EPOCH": 51386
    },
    {
        "ARG_OF_PERICENTER": 29.6291,
        "BSTAR": 0.00025597,
        "CLASSIFICATION_TYPE": "U",
        "ECCENTRICITY": 0.00163,
        "ELEMENT_SET_NO": 999,
        "EPHEMERIS_TYPE": 0,
        "EPOCH": "2026-03-30T01:30:31.088448",
        "INCLINATION": 98.0791,
        "MEAN_ANOMALY": 330.5857,
        "MEAN_MOTION": 15.09306993,
        "MEAN_MOTION_DDOT": 0,
        "MEAN_MOTION_DOT": 4.021e-05,
        "NORAD_CAT_ID": 41851,
        "OBJECT_ID": "2016-067D",
        "OBJECT_NAME": "OPTICUBE 04",
        "RA_OF_ASC_NODE": 297.1942,
        "REV_AT_EPOCH": 51323
    },
    {
        "ARG_OF_PERICENTER": 61.5747,
        "BSTAR": 0.00048036,
        "CLASSIFICATION_TYPE": "U",
        "ECCENTRICITY": 0.0004671,
        "ELEMENT_SET_NO": 999,
        "EPHEMERIS_TYPE": 0,
        "EPOCH": "2026-03-30T02:16:08.915232",
        "INCLINATION": 98.0805,
        "MEAN_ANOMALY": 298.5958,
        "MEAN_MOTION": 15.23243945,
        "MEAN_MOTION_DDOT": 0,
        "MEAN_MOTION_DOT": 0.00011308,
        "NORAD_CAT_ID": 41852,
        "OBJECT_ID": "2016-067E",
        "OBJECT_NAME": "AEROCUBE 8D",
        "RA_OF_ASC_NODE": 313.2666,
        "REV_AT_EPOCH": 51402
    },
    {
        "ARG_OF_PERICENTER": 350.3092,
        "BSTAR": 0.00049004,
        "CLASSIFICATION_TYPE": "U",
        "ECCENTRICITY": 0.0004909,
        "ELEMENT_SET_NO": 999,
        "EPHEMERIS_TYPE": 0,
        "EPOCH": "2026-03-30T01:35:17.861280",
        "INCLINATION": 98.0678,
        "MEAN_ANOMALY": 9.8048,
        "MEAN_MOTION": 15.23474438,
        "MEAN_MOTION_DDOT": 0,
        "MEAN_MOTION_DOT": 0.00011618,
        "NORAD_CAT_ID": 41853,
        "OBJECT_ID": "2016-067F",
        "OBJECT_NAME": "AEROCUBE 8C",
        "RA_OF_ASC_NODE": 310.5679,
        "REV_AT_EPOCH": 51401
    },
    {
        "ARG_OF_PERICENTER": 28.6704,
        "BSTAR": 0.00040587,
        "CLASSIFICATION_TYPE": "U",
        "ECCENTRICITY": 0.0013621,
        "ELEMENT_SET_NO": 999,
        "EPHEMERIS_TYPE": 0,
        "EPOCH": "2026-03-29T23:55:25.432896",
        "INCLINATION": 97.3977,
        "MEAN_ANOMALY": 331.5269,
        "MEAN_MOTION": 15.05768641,
        "MEAN_MOTION_DDOT": 0,
        "MEAN_MOTION_DOT": 5.833e-05,
        "NORAD_CAT_ID": 42846,
        "OBJECT_ID": "2017-042X",
        "OBJECT_NAME": "CORVUS BC2",
        "RA_OF_ASC_NODE": 253.4898,
        "REV_AT_EPOCH": 47514
    },
    {
        "ARG_OF_PERICENTER": 5.7126,
        "BSTAR": 0.00035178,
        "CLASSIFICATION_TYPE": "U",
        "ECCENTRICITY": 0.0011967,
        "ELEMENT_SET_NO": 999,
        "EPHEMERIS_TYPE": 0,
        "EPOCH": "2026-03-30T04:47:51.463680",
        "INCLINATION": 97.4009,
        "MEAN_ANOMALY": 354.4235,
        "MEAN_MOTION": 15.05966891,
        "MEAN_MOTION_DDOT": 0,
        "MEAN_MOTION_DOT": 5.072e-05,
        "NORAD_CAT_ID": 42847,
        "OBJECT_ID": "2017-042Y",
        "OBJECT_NAME": "CORVUS BC1",
        "RA_OF_ASC_NODE": 254.4456,
        "REV_AT_EPOCH": 47520
    },
    {
        "ARG_OF_PERICENTER": 192.4823,
        "BSTAR": 0.00077306,
        "CLASSIFICATION_TYPE": "U",
        "ECCENTRICITY": 0.0114524,
        "ELEMENT_SET_NO": 999,
        "EPHEMERIS_TYPE": 0,
        "EPOCH": "2026-03-30T04:42:51.500160",
        "INCLINATION": 97.4756,
        "MEAN_ANOMALY": 167.3577,
        "MEAN_MOTION": 15.28718339,
        "MEAN_MOTION_DDOT": 0,
        "MEAN_MOTION_DOT": 0.00026293,
        "NORAD_CAT_ID": 43016,
        "OBJECT_ID": "2017-073D",
        "OBJECT_NAME": "MAKERSAT 0",
        "RA_OF_ASC_NODE": 331.2535,
        "REV_AT_EPOCH": 45438
    },
    {
        "ARG_OF_PERICENTER": 203.8465,
        "BSTAR": 0.00045969,
        "CLASSIFICATION_TYPE": "U",
        "ECCENTRICITY": 0.0008255,
        "ELEMENT_SET_NO": 999,
        "EPHEMERIS_TYPE": 0,
        "EPOCH": "2026-03-30T01:53:18.066048",
        "INCLINATION": 97.4352,
        "MEAN_ANOMALY": 156.2386,
        "MEAN_MOTION": 15.13784405,
        "MEAN_MOTION_DDOT": 0,
        "MEAN_MOTION_DOT": 8.24e-05,
        "NORAD_CAT_ID": 43759,
        "OBJECT_ID": "2018-099B",
        "OBJECT_NAME": "SIRION PATHFINDER-2",
        "RA_OF_ASC_NODE": 140.0234,
        "REV_AT_EPOCH": 40065
    },
    {
        "ARG_OF_PERICENTER": 274.4126,
        "BSTAR": 0.0003705,
        "CLASSIFICATION_TYPE": "U",
        "ECCENTRICITY": 0.0006623,
        "ELEMENT_SET_NO": 999,
        "EPHEMERIS_TYPE": 0,
        "EPOCH": "2026-03-30T02:41:58.394688",
        "INCLINATION": 97.4174,
        "MEAN_ANOMALY": 85.6348,
        "MEAN_MOTION": 15.11828688,
        "MEAN_MOTION_DDOT": 0,
        "MEAN_MOTION_DOT": 6.272e-05,
        "NORAD_CAT_ID": 43767,
        "OBJECT_ID": "2018-099K",
        "OBJECT_NAME": "CORVUS BC4",
        "RA_OF_ASC_NODE": 134.4076,
        "REV_AT_EPOCH": 40045
    },
    {
        "ARG_OF_PERICENTER": 64.5351,
        "BSTAR": 0.00022855,
        "CLASSIFICATION_TYPE": "U",
        "ECCENTRICITY": 0.0013026,
        "ELEMENT_SET_NO": 999,
        "EPHEMERIS_TYPE": 0,
        "EPOCH": "2026-03-30T00:49:26.868000",
        "INCLINATION": 97.8168,
        "MEAN_ANOMALY": 295.722,
        "MEAN_MOTION": 15.0430869,
        "MEAN_MOTION_DDOT": 0,
        "MEAN_MOTION_DOT": 3.125e-05,
        "NORAD_CAT_ID": 45727,
        "OBJECT_ID": "2020-037E",
        "OBJECT_NAME": "M2 PATHFINDER",
        "RA_OF_ASC_NODE": 279.382,
        "REV_AT_EPOCH": 31359
    },
    {
        "ARG_OF_PERICENTER": 227.8119,
        "BSTAR": 0.0006106,
        "CLASSIFICATION_TYPE": "U",
        "ECCENTRICITY": 0.0003969,
        "ELEMENT_SET_NO": 999,
        "EPHEMERIS_TYPE": 0,
        "EPOCH": "2026-03-29T23:35:57.905376",
        "INCLINATION": 97.8636,
        "MEAN_ANOMALY": 132.279,
        "MEAN_MOTION": 15.41184076,
        "MEAN_MOTION_DDOT": 0,
        "MEAN_MOTION_DOT": 0.00025296,
        "NORAD_CAT_ID": 46504,
        "OBJECT_ID": "2020-068U",
        "OBJECT_NAME": "NETSAT-4",
        "RA_OF_ASC_NODE": 91.0185,
        "REV_AT_EPOCH": 30356
    },
    {
        "ARG_OF_PERICENTER": 253.6438,
        "BSTAR": 0.00067138,
        "CLASSIFICATION_TYPE": "U",
        "ECCENTRICITY": 0.000335,
        "ELEMENT_SET_NO": 999,
        "EPHEMERIS_TYPE": 0,
        "EPOCH": "2026-03-29T23:47:08.577600",
        "INCLINATION": 97.8676,
        "MEAN_ANOMALY": 106.4438,
        "MEAN_MOTION": 15.39890261,
        "MEAN_MOTION_DDOT": 0,
        "MEAN_MOTION_DOT": 0.00026664,
        "NORAD_CAT_ID": 46505,
        "OBJECT_ID": "2020-068V",
        "OBJECT_NAME": "NETSAT-3",
        "RA_OF_ASC_NODE": 89.3528,
        "REV_AT_EPOCH": 30348
    }