RAVAN                   
1 41849U 16067B   26088.17818647  .00054618  00000+0  10486-2 0  9996
2 41849  98.0014 328.9294 0004288 284.2231  75.8541 15.47787502515299
CELTEE 1                
1 41850U 16067C   26089.04116787  .00008357  00000+0  40447-3 0  9991
2 41850  98.0789 310.2071 0002068 115.1928 244.9519 15.18860666513862
OPTICUBE 04             
1 41851U 16067D   26089.06285982  .00004021  00000+0  25597-3 0  9991
2 41851  98.0791 297.1942 0016300  29.6291 330.5857 15.09306993513238
AEROCUBE 8D             
1 41852U 16067E   26089.09454763  .00011308  00000+0  48036-3 0  9999
2 41852  98.0805 313.2666 0004671  61.5747 298.5958 15.23243945514023
AEROCUBE 8C             
1 41853U 16067F   26089.06617895  .00011618  00000+0  49004-3 0  9994
2 41853  98.0678 310.5679 0004909 350.3092   9.8048 15.23474438514017
CORVUS BC2              
1 42846U 17042X   26088.99682214  .00005833  00000+0  40587-3 0  9998
2 42846  97.3977 253.4898 0013621  28.6704 331.5269 15.05768641475140
CORVUS BC1              
1 42847U 17042Y   26089.19990120  .00005072  00000+0  35178-3 0  9995
2 42847  97.4009 254.4456 0011967   5.7126 354.4235 15.05966891475205
MAKERSAT 0              
1 43016U 17073D   26089.19642940  .00026293  00000+0  77306-3 0  9999
2 43016  97.4756 331.2535 0114524 192.4823 167.3577 15.28718339454389
SIRION PATHFINDER-2     
1 43759U 18099B   26089.07868132  .00008240  00000+0  45969-3 0  9994
2 43759  97.4352 140.0234 0008255 203.8465 156.2386 15.13784405400656
CORVUS BC4              
1 43767U 18099K   26089.11248142  .00006272  00000+0  37050-3 0  9996
2 43767  97.4174 134.4076 0006623 274.4126  85.6348 15.11828688400454
M2 PATHFINDER           
1 45727U 20037E   26089.03433875  .00003125  00000+0  22855-3 0  9990
2 45727  97.8168 279.3820 0013026  64.5351 295.7220 15.04308690313597
NETSAT-4                
1 46504U 20068U   26088.98330909  .00025296  00000+0  61060-3 0  9999
2 46504  97.8636  91.0185 0003969 227.8119 132.2790 15.41184076303569
NETSAT-3                
1 46505U 20068V   26088.99107150  .00026664  00000+0  67138-3 0  9993
2 46505  97.8676  89.3528 0003350 253.6438 106.4438 15.39890261303480
